2026-052C               
1 68200U 26052C   26094.83029759  .00007864  00000+0  48277-3 0  9990
2 68200  97.5349 170.7717 0012399 197.8051 162.2746 15.10311710  2965
2026-052D               
1 68201U 26052D   26094.82782230  .00011441  00000+0  69545-3 0  9997
2 68201  97.5355 170.7730 0011621 194.3403 165.7498 15.10567882  2974
2026-052E               
1 68202U 26052E   26094.49659368  .00013241  00000+0  80433-3 0  9995
2 68202  97.5348 170.4486 0011250 200.0561 160.0228 15.10559593  2924
2026-052F               
1 68203U 26052F   26094.89074122  .00009913  00000+0  59914-3 0  9990
2 68203  97.5349 170.8477 0010615 190.6352 169.4655 15.10824582  2982
2026-052G               
1 68204U 26052G   26094.89011444  .00011671  00000+0  70367-3 0  9998
2 68204  97.5360 170.8440 0010273 193.0800 167.0165 15.10872807  2984
KZ-11 R/B               
1 68205U 26052H   26094.85923137  .00029153  20355-5  43780-3 0  9990
2 68205  97.3398 169.5033 0543760 309.1345  46.2704 14.67677490  2892
2026-052J               
1 68206U 26052J   26094.85008984  .00091243  32019-5  13268-2 0  9991
2 68206  97.3394 169.5134 0537489 309.1236  46.3336 14.69364802  2895
STARLINK-36986          
1 68207U 26053A   26094.87697539  .00111377  00000+0  57582-3 0  9993
2 68207  97.2842 330.4686 0001323  85.1605 274.9814 15.80777470  4196
STARLINK-37009          
1 68208U 26053B   26094.81290520  .00162974  00000+0  83359-3 0  9997
2 68208  97.2842 330.4021 0001554  89.3827 270.7619 15.80873193  4183
STARLINK-36948          
1 68209U 26053C   26094.81216717  .00075563  00000+0  39237-3 0  9997
2 68209  97.2838 330.4039 0001790 121.7319 238.4124 15.80784464  4169
STARLINK-37119          
1 68210U 26053D   26094.81141515  .00094208  00000+0  48783-3 0  9995
2 68210  97.2844 330.4038 0001348  99.3319 260.8101 15.80791060  4182
STARLINK-37120          
1 68211U 26053E   26094.81066426  .00031142  00000+0  16311-3 0  9993
2 68211  97.2839 330.4039 0001309  77.0201 283.1213 15.80766132  4160
STARLINK-37117          
1 68212U 26053F   26094.80990906  .00018003  00000+0  94700-4 0  9992
2 68212  97.2828 330.4061 0002542 130.6032 229.5458 15.80774005  4187
STARLINK-37116          
1 68213U 26053G   26094.80916361  .00123719  00000+0  63813-3 0  9997
2 68213  97.2837 330.4073 0002296 113.1160 247.0350 15.80793344  4188
STARLINK-35854          
1 68214U 26053H   26094.87171837  .00069713  00000+0  36302-3 0  9992
2 68214  97.2838 330.4739 0001532 122.7892 237.3524 15.80740732  4176
STARLINK-36272          
1 68215U 26053J   26094.83335647 -.02009737  00000+0 -19858-1 0  9999
2 68215  97.2840 330.4103 0001543  86.9849 358.8023 15.68959311  4107
STARLINK-37014          
1 68216U 26053K   26094.80690618  .00142546  00000+0  73297-3 0  9990
2 68216  97.2836 330.4094 0002187 134.0496 226.0952 15.80810528  4185
